OSCAR 7 (AO-7)          
1 07530U 74089B   21352.52197150 -.00000049  00000+0 -18589-4 0  9995
2 07530 101.8813 326.9979 0012446  29.5001  79.9428 12.53651887154799
PHASE 3B (AO-10)        
1 14129U 83058B   21351.62081082 -.00000116  00000+0  00000+0 0  9997
2 14129  26.3651 125.5394 5976124  33.1885 352.8469  2.05869053261669
UOSAT 2 (UO-11)         
1 14781U 84021B   21352.55269807  .00000367  00000+0  50863-4 0  9992
2 14781  97.6033 343.4396 0008113 186.3327 173.7787 14.83384909 13223
LUSAT (LO-19)           
1 20442U 90005G   21352.47211743  .00000017  00000+0  22778-4 0  9995
2 20442  98.7685 309.8422 0011499 345.6882  14.3974 14.33010851667187
EYESAT A (AO-27)        
1 22825U 93061C   21352.59236026  .00000026  00000+0  27928-4 0  9993
2 22825  98.9059  14.6257 0007879 212.8446 147.2246 14.30135440472301
ITAMSAT (IO-26)         
1 22826U 93061D   21352.58896620  .00000036  00000+0  31533-4 0  9993
2 22826  98.9001  14.5147 0008626 199.5513 160.5339 14.30476848472551
RADIO ROSTO (RS-15)     
1 23439U 94085A   21352.55772427 -.00000037  00000+0  15882-3 0  9996
2 23439  64.8135  78.1955 0165716 303.3583  55.1571 11.27570621111094
JAS-2 (FO-29)           
1 24278U 96046B   21352.56887303 -.00000014  00000+0  20985-4 0  9994
2 24278  98.5423  35.9337 0350886  32.6596 329.5723 13.53108121251146
TECHSAT 1B (GO-32)      
1 25397U 98043D   21352.39464836 -.00000010  00000+0  15033-4 0  9993
2 25397  98.7950 297.6262 0000237 292.2883  67.8270 14.23724666217669
ISS (ZARYA)             
1 25544U 98067A   21352.97531122  .00010916  00000+0  20587-3 0  9994
2 25544  51.6406 148.9926 0005481 331.6573 174.0976 15.49012988317236
PCSAT (NO-44)           
1 26931U 01043C   21352.53029429  .00000002  00000+0  32450-4 0  9995
2 26931  67.0494 165.3643 0006189 280.3540  79.6864 14.30648671 55524
SAUDISAT 1C (SO-50)     
1 27607U 02058C   21352.61761830  .00000187  00000+0  46912-4 0  9993
2 27607  64.5542 135.1321 0063317 331.5457  28.2193 14.75848147 21685
CUTE-1 (CO-55)          
1 27844U 03031E   21352.57360348  .00000120  00000+0  73481-4 0  9990
2 27844  98.6800 357.9957 0008837 265.4646  94.5522 14.22359489958198
CUBESAT XI-IV (CO-57)   
1 27848U 03031J   21352.83301442  .00000093  00000+0  61930-4 0  9998
2 27848  98.6850 358.8002 0008724 280.0299  79.9894 14.21929679958046
MOZHAYETS 4 (RS-22)     
1 27939U 03042A   21352.67397903  .00000265  00000+0  55969-4 0  9996
2 27939  98.1648 128.7844 0013975  62.2982 297.9646 14.67078798974534
CUBESAT XI-V            
1 28895U 05043F   21352.35153194  .00000310  00000+0  68158-4 0  9993
2 28895  98.0827 121.8635 0016450 355.7728   4.3333 14.64025859860911
FALCONSAT-3             
1 30776U 07006E   21352.43857169  .00011138  00000+0  24218-3 0  9995
2 30776  35.4351 355.7011 0002918 189.7440 170.3233 15.43540621821529
CUTE-1.7+APD II (CO-65) 
1 32785U 08021C   21352.41790170  .00000732  00000+0  83505-4 0  9994
2 32785  97.6344 324.3697 0014261 111.1553 249.1190 14.88930877739612
DELFI-C3 (DO-64)        
1 32789U 08021G   21352.56961424  .00005462  00000+0  33871-3 0  9991
2 32789  97.3587  20.7799 0010369 223.0755 136.9664 15.10084159744607
SEEDS II (CO-66)        
1 32791U 08021J   21352.44732539  .00001019  00000+0  10643-3 0  9990
2 32791  97.5913 330.1090 0014591  74.9237 285.3596 14.91706057740285
YUBILEINY (RS-30)       
1 32953U 08025A   21352.69488957  .00000021  00000+0  80971-4 0  9997
2 32953  82.5033 296.3379 0018696 297.9389  61.9795 12.43106439615878
KKS-1 (KISEKI)          
1 33499U 09002H   21352.56222952  .00000328  00000+0  55807-4 0  9996
2 33499  98.2412 226.3472 0009231 165.5726 194.5748 14.75756165693563
SWISSCUBE               
1 35932U 09051B   21352.52374152  .00000310  00000+0  80402-4 0  9990
2 35932  98.5848 198.2081 0006601 239.5898 120.4647 14.56634377649753
BEESAT-1                
1 35933U 09051C   21352.55153694  .00000278  00000+0  73308-4 0  9990
2 35933  98.5800 199.9747 0004690 253.6061 106.4620 14.56680022649836
ITUPSAT1                
1 35935U 09051E   21352.87193653  .00000265  00000+0  71670-4 0  9992
2 35935  98.5901 200.4036 0006989 255.5888 104.4533 14.55805642649635
XIWANG-1 (HOPE-1)       
1 36122U 09072B   21352.53477713 -.00000064  00000+0 -55376-4 0  9993
2 36122 100.1580 325.7532 0007942  41.3445 318.8269 13.16364465577006
JUGNU                   
1 37839U 11058B   21352.81531500  .00000322  00000+0  29684-4 0  9990
2 37839  19.9595 191.0717 0018874 325.0911 138.0974 14.12738426526671
SRMSAT                  
1 37841U 11058D   21352.49049904  .00000360  00000+0  52862-4 0  9995
2 37841  19.9719 268.7385 0011984 155.4613   2.1909 14.10716061525659
M-CUBED & EXP-1 PRIME   
1 37855U 11061F   21352.57938587  .00003928  00000+0  18970-3 0  9991
2 37855 101.7218  11.8115 0162913 242.5758 115.8804 15.08965131553933
STRAND-1                
1 39090U 13009E   21352.53046555  .00000079  00000+0  42446-4 0  9999
2 39090  98.4114 190.2694 0010237  90.3999 269.8360 14.35217182461440
SOMP                    
1 39134U 13015E   21352.28391397  .00006509  00000+0  27357-3 0  9991
2 39134  64.8641 294.1097 0026309 306.9746  52.8975 15.23972619479212
BEESAT-3                
1 39135U 13015F   21352.35848199  .00004830  00000+0  22770-3 0  9996
2 39135  64.8677 326.2077 0025711 319.2916  40.6289 15.20433474478556
BEESAT-2                
1 39136U 13015G   21352.56984840  .00004404  00000+0  21397-3 0  9995
2 39136  64.8759 332.7159 0012219 253.6742 106.3042 15.19720788478404
ZACUBE-1 (TSHEPISOSAT)  
1 39417U 13066B   21352.48515350  .00000805  00000+0  10590-3 0  9994
2 39417  97.6143 327.5038 0056938 278.2201  81.2558 14.81721659436328
GOMX-1                  
1 39430U 13066Q   21352.72337296  .00000320  00000+0  66820-4 0  9997
2 39430  97.8146 265.2110 0148848 254.4394 104.0358 14.59774400429925
CUBEBUG-2 (LO-74)       
1 39440U 13066AA  21352.46707156  .00000888  00000+0  12845-3 0  9991
2 39440  97.7023 312.9914 0079702 359.6612   0.4531 14.76428746433570
FUNCUBE-1 (AO-73)       
1 39444U 13066AE  21352.48945861  .00000931  00000+0  11892-3 0  9994
2 39444  97.6036 329.8978 0055904 267.2735  92.2080 14.82670745434701
UWE-3                   
1 39446U 13066AG  21352.39436166  .00000811  00000+0  11259-3 0  9993
2 39446  97.6615 319.6485 0068569 320.6586  38.9655 14.78975559433693
SPROUT                  
1 39770U 14029E   21352.77918878  .00001460  00000+0  16121-3 0  9994
2 39770  97.9297 104.1092 0008005 328.5629  31.5107 14.89003468410764
UNISAT-6                
1 40012U 14033C   21352.55400318  .00000524  00000+0  84013-4 0  9997
2 40012  97.6619 185.2031 0058549  25.9468 334.4656 14.74466950403321
DUCHIFAT-1              
1 40021U 14033M   21352.82522147  .00001332  00000+0  13818-3 0  9994
2 40021  97.9925 295.1777 0011304 278.7458  81.2480 14.91706977407766
QB50P1                  
1 40025U 14033R   21352.81577192  .00001044  00000+0  11501-3 0  9994
2 40025  97.9468 284.1037 0011073 295.7080  64.2993 14.89697529407378
NUDT-PHONESAT           
1 40900U 15049B   21352.82036772  .00006642  00000+0  24160-3 0  9993
2 40900  97.4131   5.8948 0010388 198.0255 336.5068 15.28532188346966
ZDPS 2A                 
1 40901U 15049C   21352.80318560  .00003131  00000+0  14597-3 0  9993
2 40901  97.4625 358.0043 0010893 256.9637 277.5705 15.20578884345970
ZDPS 2B                 
1 40902U 15049D   21352.77809918  .00003176  00000+0  14774-3 0  9998
2 40902  97.4685 355.4467 0010843 253.1043 287.7109 15.20643518345948
XW-2A                   
1 40903U 15049E   21352.75976683  .00006854  00000+0  13571-3 0  9991
2 40903  97.2130  46.6316 0013285  65.4155  74.1819 15.47301742351273
KAITUO 1A               
1 40904U 15049F   21352.79460824  .00001280  00000+0  68855-4 0  9995
2 40904  97.4916 352.2807 0012586 280.1857 203.8929 15.16614198345473
2015-049G               
1 40905U 15049G   21352.78963128  .00001043  00000+0  58746-4 0  9995
2 40905  97.5080 349.3946 0013709 281.1387 252.6711 15.15366580345249
XW-2C                   
1 40906U 15049H   21352.79847369  .00001750  00000+0  91062-4 0  9998
2 40906  97.4901 352.9642 0012622 268.3953 215.9260 15.17308927345517
XW-2D                   
1 40907U 15049J   21352.81558076  .00001863  00000+0  95682-4 0  9993
2 40907  97.4892 352.8481 0012020 263.5842 220.1420 15.17705556345552
LILACSAT-2              
1 40908U 15049K   21352.81368321  .00001019  00000+0  58399-4 0  9993
2 40908  97.5114 350.4116 0013989 284.2761 198.5897 15.14771990345137
XW-2E                   
1 40909U 15049L   21352.79207649  .00002745  00000+0  12868-3 0  9993
2 40909  97.4673 357.0655 0011230 243.1393 291.3720 15.20486034345934
XW-2F                   
1 40910U 15049M   21352.77405250  .00002684  00000+0  12770-3 0  9995
2 40910  97.4739 356.1443 0012313 244.7995 200.5870 15.19980858345717
XW-2B                   
1 40911U 15049N   21352.82857730  .00001743  00000+0  89976-4 0  9994
2 40911  97.4888 353.5113 0011914 265.0985 216.9931 15.17614256345442
KAITUO 1B               
1 40912U 15049P   21352.80253990  .00003123  00000+0  13701-3 0  9997
2 40912  97.4430   0.5530 0012955 210.1512 325.0598 15.22647561346231
TIANWANG 1A (TW-1A)     
1 40928U 15051D   21352.86197071  .00011142  00000+0  20709-3 0  9996
2 40928  97.0620  13.5251 0008255 348.3915 136.1297 15.49025933350209
LAPAN-A2                
1 40931U 15052B   21351.50773499  .00000797  00000+0  21838-4 0  9994
2 40931   6.0001  26.8686 0012581 113.5135 246.6374 14.76710856336401
E-ST@R-II               
1 41459U 16025D   21352.66618422  .00006767  00000+0  31944-3 0  9994
2 41459  98.1639 140.3196 0157023 160.9970 199.7229 15.09476040310194
AAUSAT 4                
1 41460U 16025E   21352.88109449  .00009888  00000+0  43676-3 0  9996
2 41460  98.1604 145.4259 0141745 141.1263 220.0402 15.13275530310584
